ORBCOMM FM115 [+]       
1 41186U 15081H   24007.39902641  .00000865  00000+0  21305-3 0  9994
2 41186  47.0008  20.3898 0000957 243.6744 116.4044 14.60239963430721
ORBCOMM FM108 [+]       
1 41187U 15081J   24006.20499162  .00000827  00000+0  22289-3 0  9993
2 41187  47.0055  76.4141 0001500  28.3487 331.7479 14.56187484429798
ORBCOMM FM117 [+]       
1 41188U 15081K   24007.20014156  .00001080  00000+0  27975-3 0  9990
2 41188  47.0017  70.6671 0001857  56.5469 303.5593 14.56180462429983
